start=new Date('2022-02-28T00:00:00.000Z').valueOf();
sats=[{"COUNTRY_CODE":"US","CLASSIFICATION_TYPE":"U","TIME_SYSTEM":"UTC","EPHEMERIS_TYPE":"0","RCS_SIZE":"LARGE","OBJECT_NAME":"STARLINK-2272","MEAN_MOTION":"15.06401158","SITE":"AFETR","ELEMENT_SET_NO":"999","SEMIMAJOR_AXIS":"6925.345","GP_ID":"197234288","REV_AT_EPOCH":"5307","MEAN_ANOMALY":"301.0953","ECCENTRICITY":"0.00016320","CENTER_NAME":"EARTH","TLE_LINE1":"1 48011U 21024AL  22058.33508596  .00000765  00000-0  70267-4 0  9993","PERIOD":"95.592","APOAPSIS":"548.340","MEAN_MOTION_DDOT":"0.0000000000000","BSTAR":"0.00007026700000","EPOCH":"2022-02-27T08:02:31.426944","OBJECT_ID":"2021-024AL","DECAY_DATE":null,"INCLINATION":"53.0571","FILE":"3329903","ARG_OF_PERICENTER":"59.0196","LAUNCH_DATE":"2021-03-24","MEAN_MOTION_DOT":"0.00000765","OBJECT_TYPE":"PAYLOAD","PERIAPSIS":"546.080","TLE_LINE2":"2 48011  53.0571  81.7899 0001632  59.0196 301.0953 15.06401158 53078","RA_OF_ASC_NODE":"81.7899","REF_FRAME":"TEME","MEAN_ELEMENT_THEORY":"SGP4","NORAD_CAT_ID":"48011"},{"TIME_SYSTEM":"UTC","CLASSIFICATION_TYPE":"U","COUNTRY_CODE":"US","SITE":"AFETR","RCS_SIZE":"LARGE","MEAN_MOTION":"15.25929000","OBJECT_NAME":"STARLINK-2216","EPHEMERIS_TYPE":"0","GP_ID":"197235036","SEMIMAJOR_AXIS":"6866.134","REV_AT_EPOCH":"5348","ELEMENT_SET_NO":"999","PERIOD":"94.369","ECCENTRICITY":"0.00018650","CENTER_NAME":"EARTH","TLE_LINE1":"1 48012U 21024AM  22058.40071395  .00091946  00000-0  35060-2 0  9995","MEAN_ANOMALY":"307.6839","EPOCH":"2022-02-27T09:37:01.685280","OBJECT_ID":"2021-024AM","BSTAR":"0.00350600000000","MEAN_MOTION_DDOT":"0.0000000000000","APOAPSIS":"489.280","ARG_OF_PERICENTER":"52.4327","LAUNCH_DATE":"2021-03-24","MEAN_MOTION_DOT":"0.00091946","FILE":"3329903","DECAY_DATE":null,"INCLINATION":"53.0623","PERIAPSIS":"486.719","OBJECT_TYPE":"PAYLOAD","NORAD_CAT_ID":"48012","MEAN_ELEMENT_THEORY":"SGP4","RA_OF_ASC_NODE":"52.9414","REF_FRAME":"TEME","TLE_LINE2":"2 48012  53.0623  52.9414 0001865  52.4327 307.6839 15.25929000 53483"},{"REF_FRAME":"TEME","RA_OF_ASC_NODE":"64.6041","TLE_LINE2":"2 48013  53.0552  64.6041 0001946  49.4189 310.6969 15.06404553 53302","NORAD_CAT_ID":"48013","MEAN_ELEMENT_THEORY":"SGP4","PERIAPSIS":"545.852","OBJECT_TYPE":"PAYLOAD","FILE":"3331200","INCLINATION":"53.0552","DECAY_DATE":null,"MEAN_MOTION_DOT":"0.00000804","ARG_OF_PERICENTER":"49.4189","LAUNCH_DATE":"2021-03-24","MEAN_MOTION_DDOT":"0.0000000000000","APOAPSIS":"548.547","EPOCH":"2022-02-27T19:43:50.727360","OBJECT_ID":"2021-024AN","BSTAR":"0.00007289300000","TLE_LINE1":"1 48013U 21024AN  22058.82211490  .00000804  00000-0  72893-4 0  9994","ECCENTRICITY":"0.00019460","CENTER_NAME":"EARTH","MEAN_ANOMALY":"310.6969","PERIOD":"95.592","ELEMENT_SET_NO":"999","REV_AT_EPOCH":"5330","SEMIMAJOR_AXIS":"6925.335","GP_ID":"197285014","EPHEMERIS_TYPE":"0","SITE":"AFETR","MEAN_MOTION":"15.06404553","OBJECT_NAME":"STARLINK-2243","RCS_SIZE":"LARGE","CLASSIFICATION_TYPE":"U","COUNTRY_CODE":"US","TIME_SYSTEM":"UTC"},{"CENTER_NAME":"EARTH","ECCENTRICITY":"0.00019980","TLE_LINE1":"1 48014U 21024AP  22058.91667824  .00016972  00000-0  11814-2 0  9998","MEAN_ANOMALY":"185.6778","PERIOD":"95.645","ELEMENT_SET_NO":"999","SEMIMAJOR_AXIS":"6927.881","GP_ID":"197285264","REV_AT_EPOCH":"360","EPHEMERIS_TYPE":"0","SITE":"AFETR","RCS_SIZE":"LARGE","MEAN_MOTION":"15.05574090","OBJECT_NAME":"STARLINK-2283","CLASSIFICATION_TYPE":"U","COUNTRY_CODE":"US","TIME_SYSTEM":"UTC","REF_FRAME":"TEME","RA_OF_ASC_NODE":"28.3133","TLE_LINE2":"2 48014  53.0547  28.3133 0001998  53.5405 185.6778 15.05574090  3609","NORAD_CAT_ID":"48014","MEAN_ELEMENT_THEORY":"SGP4","PERIAPSIS":"548.362","OBJECT_TYPE":"PAYLOAD","FILE":"3331200","DECAY_DATE":null,"INCLINATION":"53.0547","ARG_OF_PERICENTER":"53.5405","LAUNCH_DATE":"2021-03-24","MEAN_MOTION_DOT":"0.00016972","MEAN_MOTION_DDOT":"0.0000000000000","APOAPSIS":"551.130","EPOCH":"2022-02-27T22:00:00.999936","OBJECT_ID":"2021-024AP","BSTAR":"0.00118140000000"},{"MEAN_ELEMENT_THEORY":"SGP4","NORAD_CAT_ID":"48016","TLE_LINE2":"2 48016  53.0554  14.1637 0001851  58.6167 314.7040 15.06411207  3619","REF_FRAME":"TEME","RA_OF_ASC_NODE":"14.1637","OBJECT_TYPE":"PAYLOAD","PERIAPSIS":"545.897","ARG_OF_PERICENTER":"58.6167","LAUNCH_DATE":"2021-03-24","MEAN_MOTION_DOT":"0.00003141","DECAY_DATE":null,"INCLINATION":"53.0554","FILE":"3331200","BSTAR":"0.00022959000000","EPOCH":"2022-02-27T22:00:00.999936","OBJECT_ID":"2021-024AR","APOAPSIS":"548.461","MEAN_MOTION_DDOT":"0.0000000000000","PERIOD":"95.591","MEAN_ANOMALY":"314.7040","CENTER_NAME":"EARTH","ECCENTRICITY":"0.00018510","TLE_LINE1":"1 48016U 21024AR  22058.91667824  .00003141  00000-0  22959-3 0  9997","GP_ID":"197286516","SEMIMAJOR_AXIS":"6925.314","REV_AT_EPOCH":"361","ELEMENT_SET_NO":"999","RCS_SIZE":"LARGE","OBJECT_NAME":"STARLINK-2284","MEAN_MOTION":"15.06411207","SITE":"AFETR","EPHEMERIS_TYPE":"0","TIME_SYSTEM":"UTC","COUNTRY_CODE":"US","CLASSIFICATION_TYPE":"U"},{"TIME_SYSTEM":"UTC","COUNTRY_CODE":"US","CLASSIFICATION_TYPE":"U","RCS_SIZE":"LARGE","OBJECT_NAME":"STARLINK-2239","MEAN_MOTION":"15.49278219","SITE":"AFETR","EPHEMERIS_TYPE":"0","GP_ID":"197286266","SEMIMAJOR_AXIS":"6796.973","REV_AT_EPOCH":"5325","ELEMENT_SET_NO":"999","PERIOD":"92.947","MEAN_ANOMALY":"87.9079","CENTER_NAME":"EARTH","ECCENTRICITY":"0.00067920","TLE_LINE1":"1 48017U 21024AS  22058.71467481  .00130771  00000-0  23209-2 0  9991","BSTAR":"0.00232090000000","EPOCH":"2022-02-27T17:09:07.903584","OBJECT_ID":"2021-024AS","APOAPSIS":"423.455","MEAN_MOTION_DDOT":"0.0000000000000","LAUNCH_DATE":"2021-03-24","ARG_OF_PERICENTER":"272.1151","MEAN_MOTION_DOT":"0.00130771","DECAY_DATE":null,"INCLINATION":"53.0521","FILE":"3331200","OBJECT_TYPE":"PAYLOAD","PERIAPSIS":"414.222","MEAN_ELEMENT_THEORY":"SGP4","NORAD_CAT_ID":"48017","TLE_LINE2":"2 48017  53.0521  67.4412 0006792 272.1151  87.9079 15.49278219 53258","RA_OF_ASC_NODE":"67.4412","REF_FRAME":"TEME"},{"PERIAPSIS":"546.061","OBJECT_TYPE":"PAYLOAD","NORAD_CAT_ID":"48018","MEAN_ELEMENT_THEORY":"SGP4","RA_OF_ASC_NODE":"84.8191","REF_FRAME":"TEME","TLE_LINE2":"2 48018  53.0537  84.8191 0001638  55.5579 304.5565 15.06405913 53078","EPOCH":"2022-02-27T18:30:50.409792","OBJECT_ID":"2021-024AT","BSTAR":"0.00032285000000","MEAN_MOTION_DDOT":"0.0000000000000","APOAPSIS":"548.330","MEAN_MOTION_DOT":"0.00004531","ARG_OF_PERICENTER":"55.5579","LAUNCH_DATE":"2021-03-24","FILE":"3331200","INCLINATION":"53.0537","DECAY_DATE":null,"REV_AT_EPOCH":"5307","GP_ID":"197285515","SEMIMAJOR_AXIS":"6925.330","ELEMENT_SET_NO":"999","PERIOD":"95.592","TLE_LINE1":"1 48018U 21024AT  22058.77141678  .00004531  00000-0  32285-3 0  9994","CENTER_NAME":"EARTH","ECCENTRICITY":"0.00016380","MEAN_ANOMALY":"304.5565","TIME_SYSTEM":"UTC","CLASSIFICATION_TYPE":"U","COUNTRY_CODE":"US","SITE":"AFETR","OBJECT_NAME":"STARLINK-2282","MEAN_MOTION":"15.06405913","RCS_SIZE":"LARGE","EPHEMERIS_TYPE":"0"},{"MEAN_ANOMALY":"302.9379","TLE_LINE1":"1 48019U 21024AU  22058.74010959  .00001608  00000-0  12686-3 0  9994","CENTER_NAME":"EARTH","ECCENTRICITY":"0.00017060","PERIOD":"95.593","ELEMENT_SET_NO":"999","REV_AT_EPOCH":"5314","GP_ID":"197285765","SEMIMAJOR_AXIS":"6925.367","EPHEMERIS_TYPE":"0","MEAN_MOTION":"15.06393838","OBJECT_NAME":"STARLINK-2285","RCS_SIZE":"LARGE","SITE":"AFETR","COUNTRY_CODE":"US","CLASSIFICATION_TYPE":"U","TIME_SYSTEM":"UTC","TLE_LINE2":"2 48019  53.0553  74.9780 0001706  57.1774 302.9379 15.06393838 53147","RA_OF_ASC_NODE":"74.9780","REF_FRAME":"TEME","MEAN_ELEMENT_THEORY":"SGP4","NORAD_CAT_ID":"48019","OBJECT_TYPE":"PAYLOAD","PERIAPSIS":"546.051","INCLINATION":"53.0553","DECAY_DATE":null,"FILE":"3331200","MEAN_MOTION_DOT":"0.00001608","LAUNCH_DATE":"2021-03-24","ARG_OF_PERICENTER":"57.1774","APOAPSIS":"548.414","MEAN_MOTION_DDOT":"0.0000000000000","BSTAR":"0.00012686000000","OBJECT_ID":"2021-024AU","EPOCH":"2022-02-27T17:45:45.468576"},{"DECAY_DATE":null,"INCLINATION":"53.0554","FILE":"3331200","LAUNCH_DATE":"2021-03-24","ARG_OF_PERICENTER":"62.5363","MEAN_MOTION_DOT":"0.00017397","APOAPSIS":"548.546","MEAN_MOTION_DDOT":"0.0000000000000","BSTAR":"0.00118440000000","EPOCH":"2022-02-27T22:00:00.999936","OBJECT_ID":"2021-024AV","TLE_LINE2":"2 48020  53.0554  29.1630 0001859  62.5363 148.2867 15.06385169  3617","RA_OF_ASC_NODE":"29.1630","REF_FRAME":"TEME","MEAN_ELEMENT_THEORY":"SGP4","NORAD_CAT_ID":"48020","OBJECT_TYPE":"PAYLOAD","PERIAPSIS":"545.972","EPHEMERIS_TYPE":"0","RCS_SIZE":"LARGE","MEAN_MOTION":"15.06385169","OBJECT_NAME":"STARLINK-2294","SITE":"AFETR","COUNTRY_CODE":"US","CLASSIFICATION_TYPE":"U","TIME_SYSTEM":"UTC","MEAN_ANOMALY":"148.2867","ECCENTRICITY":"0.00018590","CENTER_NAME":"EARTH","TLE_LINE1":"1 48020U 21024AV  22058.91667824  .00017397  00000-0  11844-2 0  9990","PERIOD":"95.593","ELEMENT_SET_NO":"999","SEMIMAJOR_AXIS":"6925.394","GP_ID":"197286016","REV_AT_EPOCH":"361"},{"REF_FRAME":"TEME","RA_OF_ASC_NODE":"35.3215","TLE_LINE2":"2 48021  53.0568  35.3215 0001864  54.3499 305.7663 15.06411596 53709","NORAD_CAT_ID":"48021","MEAN_ELEMENT_THEORY":"SGP4","PERIAPSIS":"545.887","OBJECT_TYPE":"PAYLOAD","FILE":"3331200","DECAY_DATE":null,"INCLINATION":"53.0568","LAUNCH_DATE":"2021-03-24","ARG_OF_PERICENTER":"54.3499","MEAN_MOTION_DOT":"0.00005684","MEAN_MOTION_DDOT":"0.0000000000000","APOAPSIS":"548.469","OBJECT_ID":"2021-024AW","EPOCH":"2022-02-27T15:54:17.165952","BSTAR":"0.00040004000000","CENTER_NAME":"EARTH","ECCENTRICITY":"0.00018640","TLE_LINE1":"1 48021U 21024AW  22058.66269868  .00005684  00000-0  40004-3 0  9996","MEAN_ANOMALY":"305.7663","PERIOD":"95.591","ELEMENT_SET_NO":"999","SEMIMAJOR_AXIS":"6925.313","GP_ID":"197286767","REV_AT_EPOCH":"5370","EPHEMERIS_TYPE":"0","SITE":"AFETR","RCS_SIZE":"LARGE","MEAN_MOTION":"15.06411596","OBJECT_NAME":"STARLINK-2301","CLASSIFICATION_TYPE":"U","COUNTRY_CODE":"US","TIME_SYSTEM":"UTC"}];
